[{"OBJECT_NAME":"STARLINK-1193","OBJECT_ID":"2020-006BJ","EPOCH":"2026-03-10T00:00:02.999808","MEAN_MOTION":15.55787622,"ECCENTRICITY":0.00018468,"INCLINATION":53.052,"RA_OF_ASC_NODE":228.9273,"ARG_OF_PERICENTER":4.2814,"MEAN_ANOMALY":156.1265,"EPHEMERIS_TYPE":0,"CLASSIFICATION_TYPE":"U","NORAD_CAT_ID":45100,"ELEMENT_SET_NO":999,"REV_AT_EPOCH":587,"BSTAR":0.0019633041,"MEAN_MOTION_DOT":0.00139916,"MEAN_MOTION_DDOT":0},{"OBJECT_NAME":"EAGLEEYE","OBJECT_ID":"2024-149AS","EPOCH":"2026-03-09T17:00:04.921056","MEAN_MOTION":15.56719418,"ECCENTRICITY":0.00030534,"INCLINATION":97.3768,"RA_OF_ASC_NODE":157.6882,"ARG_OF_PERICENTER":252.5536,"MEAN_ANOMALY":107.5386,"EPHEMERIS_TYPE":0,"CLASSIFICATION_TYPE":"U","NORAD_CAT_ID":60508,"ELEMENT_SET_NO":999,"REV_AT_EPOCH":8739,"BSTAR":0.00091955521,"MEAN_MOTION_DOT":0.00066015,"MEAN_MOTION_DDOT":0}]
